GOLIAT
1 38085U 12006J   12292.69237480  .00042268  00000-0  10219-2 0  5474
2 38085 069.4816 032.4373 0706742 091.4736 276.7389 14.23036819 35083
HORYU-2
1 38340U 12025D   12292.83728826  .00002085  00000-0  35352-3 0  1974
2 38340 098.1868 232.9216 0011885 301.7550 058.2594 14.70283572 22645
RS-40
1 38736U 12041D   12291.60566656  .00000010  00000-0  00000-0 0 00857
2 38736 082.4767 306.3828 0019692 134.3444 225.9261 12.42646793010117
PROITERES
1 38756U 12047B   12292.73499540  .00000932  00000-0  15005-3 0  1462
2 38756 098.2820 359.0544 0013217 150.3032 209.8929 14.73921250  5826
AENEAS
1 38760U 0        12292.59224759  .00007974  00000-0  72768-3 0 00444
2 38760 064.6712 294.3785 0218746 279.7740 196.9387 14.79209769005118
CSSWE-D
1 38761U 0        12292.59396971  .00005180  00000-0  47685-3 0 00392
2 38761 064.6728 294.3543 0219595 279.7647 220.2297 14.79250717005117
CXBN-E
1 38762U 0        12292.52621990  .00005711  00000-0  52324-3 0 00383
2 38762 064.6742 294.5535 0219472 279.5853 225.3092 14.79313262005101
OBJECT F
1 38763U 0        12292.58915884  .00004849  00000-0  44643-3 0 00362
2 38763 064.6728 294.3579 0219860 279.8294 202.0698 14.79303387004958
CINEMA-G
1 38764U 0        12292.52560757  .00005180  00000-0  47594-3 0 00369
2 38764 064.6712 294.5467 0219593 279.8509 224.9420 14.79320852005102
CP5
1 38765U 0        12292.58733009  .00007628  00000-0  69377-3 0 00371
2 38765 064.6732 294.3416 0218581 279.7702 197.9660 14.79394567005117
RAIKO
1 38852U 98067CN  12292.86260360  .00041198  00000-0  66887-3 0   131
2 38852 051.6467 226.8659 0018444 171.1212 189.0108 15.52123295  2140
FITSAT 1
1 38853U 98067CP  12292.86186995  .00049816  00000-0  80346-3 0   156
2 38853 051.6526 226.8697 0014395 179.4079 180.6934 15.52297689  2190
TechEdSat
1 38854U 98067CQ  12292.92449247  .00062912  00000-0  99719-3 0   152
2 38854 051.6473 226.5338 0015030 181.5682 178.5289 15.52669418  2206
F 1
1 38855U 98067CR  12292.86048178  .00061081  00000-0  97070-3 0   169
2 38855 051.6488 226.8593 0015441 181.9586 178.1351 15.52602573  2083
WeWish
1 38856U 98067CS  12292.85810721  .00086786  00000-0  13426-2 0   194
2 38856 051.6468 226.8346 0016425 170.6382 189.4931 15.53175866  2080
